{
    "links": {
        "self": "http://www.neowsapp.com/rest/v1/neo/3476772?api_key=iIulBulltgU6a56xZRHN4H3l9WmuAYTsLGpBGhQ2"
    },
    "id": "3476772",
    "neo_reference_id": "3476772",
    "name": "(2009 VR44)",
    "designation": "2009 VR44",
    "nasa_jpl_url": "http://ssd.jpl.nasa.gov/sbdb.cgi?sstr=3476772",
    "absolute_magnitude_h": 25.0,
    "estimated_diameter": {
        "kilometers": {
            "estimated_diameter_min": 0.02658,
            "estimated_diameter_max": 0.0594346868
        },
        "meters": {
            "estimated_diameter_min": 26.58,
            "estimated_diameter_max": 59.4346868419
        },
        "miles": {
            "estimated_diameter_min": 0.0165160412,
            "estimated_diameter_max": 0.0369309908
        },
        "feet": {
            "estimated_diameter_min": 87.2047272,
            "estimated_diameter_max": 194.9956979785
        }
    },
    "is_potentially_hazardous_asteroid": false,
    "close_approach_data": [
        {
            "close_approach_date": "2009-11-05",
            "close_approach_date_full": "2009-Nov-05 22:33",
            "epoch_date_close_approach": 1257460380000,
            "relative_velocity": {
                "kilometers_per_second": "9.8309415126",
                "kilometers_per_hour": "35391.3894453411",
                "miles_per_hour": "21990.8330695232"
            },
            "miss_distance": {
                "astronomical": "0.0378780248",
                "lunar": "14.7345516472",
                "kilometers": "5666471.829887176",
                "miles": "3520982.3249719888"
            },
            "orbiting_body": "Earth"
        }
    ],
    "orbital_data": {
        "orbit_id": "8",
        "orbit_determination_date": "2017-04-06 08:59:12",
        "first_observation_date": "2009-11-15",
        "last_observation_date": "2009-11-25",
        "data_arc_in_days": 10,
        "observations_used": 38,
        "orbit_uncertainty": "8",
        "minimum_orbit_intersection": ".0355104",
        "jupiter_tisserand_invariant": "3.859",
        "epoch_osculation": "2455155.5",
        "eccentricity": ".4798117073458427",
        "semi_major_axis": "1.843025828836236",
        "inclination": "7.351152290851123",
        "ascending_node_longitude": "55.25809367920802",
        "orbital_period": "913.8934386679483",
        "perihelion_distance": ".9587204592198345",
        "perihelion_argument": "313.6899916196593",
        "aphelion_distance": "2.727331198452637",
        "perihelion_time": "2455113.949796266881",
        "mean_anomaly": "16.36741518324618",
        "mean_motion": ".3939190115258082",
        "equinox": "J2000",
        "orbit_class": {
            "orbit_class_type": "APO",
            "orbit_class_description": "Near-Earth asteroid orbits which cross the Earth’s orbit similar to that of 1862 Apollo",
            "orbit_class_range": "a (semi-major axis) > 1.0 AU; q (perihelion) < 1.017 AU"
        }
    },
    "is_sentry_object": false
}